CCSDS_OEM_VERS = 2.0  
CREATION_DATE  = 2021-10-19T09:45:45
ORIGINATOR     = ESOC/OPS-GFA                            
 
 



META_START
OBJECT_NAME          = LISA                                    
OBJECT_ID            = -1000                                   
CENTER_NAME          = SUN                     
REF_FRAME            = EME2000 
TIME_SYSTEM          = TDB
START_TIME           = 2036-02-12T12:00:00.00000000            
STOP_TIME            = 2046-11-13T01:04:47.99999985            
INTERPOLATION        = HERMITE                                 
INTERPOLATION_DEGREE = 7                                       
META_STOP

2037-05-29T15:26:11.63179597    -7530158.074994  -137735415.334598   -59004097.462840  29.6599220  -1.5624708  -0.4427082     0.000000295771     0.000005412771     0.000002318761
2037-05-30T22:36:43.46194420    -4199782.804719  -137876674.703227   -59039177.688125  29.6857705  -0.9547307  -0.1824163     0.000000164849     0.000005416872     0.000002319518
2037-06-01T05:47:15.29209243     -867331.110109  -137949706.039968   -59045042.495767  29.6969242  -0.3466796   0.0778967     0.000000033916     0.000005418311     0.000002319137
2037-06-02T12:57:47.12224081     2465547.843707  -137954491.206810   -59021696.689206  29.6933854   0.2613839   0.3381031    -0.000000096965     0.000005417092     0.000002317618
2037-06-03T20:08:18.95238904     5797205.543986  -137891045.556986   -58969159.400170  29.6751633   0.8691614   0.5980752    -0.000000227732     0.000005413217     0.000002314963
2037-06-05T10:51:41.90432554     9931272.621311  -137717308.105353   -58863306.776885  29.6321095   1.6232346   0.9204684    -0.000000389902     0.000005404713     0.000002310088
2037-06-07T01:35:04.85626188    14057763.302198  -137438546.472868   -58712564.614149  29.5664747   2.3758379   1.2420604    -0.000000551678     0.000005392131     0.000002303470
2037-06-08T16:18:27.80819838    18173533.962252  -137055005.153040   -58517061.501078  29.4783224   3.1264037   1.5626089    -0.000000712940     0.000005375484     0.000002295117
2037-06-10T07:01:50.76013488    22275450.960652  -136567007.613063   -58276959.749110  29.3677323   3.8743666   1.8818724    -0.000000873569     0.000005354791     0.000002285037
2037-06-12T02:04:18.90599867    26814728.018750  -135902506.273509   -57957987.245380  29.2185977   4.7019976   2.2349378    -0.000001051224     0.000005327065     0.000002271818
2037-06-13T21:06:47.05186246    31328768.486160  -135110117.707413   -57584475.052255  29.0420180   5.5249490   2.5857914    -0.000001227791     0.000005294395     0.000002256491
2037-06-15T16:09:15.19772640    35813333.500453  -134190626.205147   -57156791.121167  28.8381743   6.3424576   2.9341079    -0.000001403110     0.000005256818     0.000002239073
2037-06-17T11:11:43.34359019    40264214.158498  -133144933.872158   -56675353.596621  28.6072721   7.1537660   3.2795647    -0.000001577023     0.000005214373     0.000002219583
2037-06-19T13:08:13.27275991    45380945.875868  -131774772.179557   -56049979.512069  28.3057426   8.0863841   3.6764004    -0.000001776849     0.000005159081     0.000002194397
2037-06-21T15:04:43.20192978    50440248.312375  -130237863.479564   -55353680.185090  27.9684937   9.0084830   4.0684620    -0.000001974329     0.000005097371     0.000002166482
2037-06-23T17:01:13.13109950    55435738.678397  -128536202.308239   -54587357.852167  27.5959685   9.9189162   4.4552622    -0.000002169225     0.000005029325     0.000002135875
2037-06-25T18:57:43.06026922    60361117.683476  -126671987.939779   -53752001.735371  27.1886528  10.8165528   4.8363208    -0.000002361303     0.000004955035     0.000002102618
2037-06-28T00:14:15.56979325    65531027.049832  -124506836.981630   -52785990.514403  26.7163885  11.7587529   5.2359564    -0.000002562837     0.000004869011     0.000002064266
2037-06-30T05:30:48.07931728    70606675.556578  -122162603.575600   -51744055.481716  26.2058264  12.6837934   5.6279564    -0.000002760625     0.000004776119     0.000002023004
2037-07-02T10:47:20.58884147    75580788.519874  -119642704.306794   -50627714.264343  25.6577106  13.5903701   6.0117682    -0.000002954399     0.000004676493     0.000001978891
2037-07-04T16:03:53.09836549    80446238.903126  -116950803.380881   -49438589.338552  25.0728368  14.4772050   6.3868511    -0.000003143893     0.000004570279     0.000001931990
2037-07-07T04:22:43.67056912    85814553.489774  -113700614.944103   -48006702.425986  24.3673984  15.4558024   6.8002870    -0.000003352933     0.000004442272     0.000001875615
2037-07-09T16:41:34.24277275    91024816.004948  -110241024.029927   -46486401.672089  23.6172354  16.4057310   7.2011127    -0.000003555795     0.000004306250     0.000001815855
2037-07-12T05:00:24.81497654    96067463.831505  -106578442.569974   -44880504.056393  22.8237277  17.3252769   7.5886053    -0.000003752124     0.000004162458     0.000001752821
2037-07-14T17:19:15.38718016   100933242.179464  -102719648.668776   -43191980.924066  21.9883312  18.2127812   7.9620658    -0.000003941580     0.000004011156     0.000001686625
2037-07-17T10:29:31.31972642   105981750.201671   -98337799.111612   -41278213.180623  21.0403421  19.1338925   8.3490512    -0.000004138185     0.000003839543     0.000001611681
2037-07-20T03:39:47.25227251   110802513.751139   -93744640.450330   -39275746.628470  20.0472521  20.0137839   8.7180521    -0.000004325979     0.000003659835     0.000001533340
2037-07-22T20:50:03.18481877   115385197.582194   -88950062.944309   -37188892.755252  19.0111738  20.8505999   9.0682905    -0.000004504580     0.000003472407     0.000001451766
2037-07-25T14:00:19.11736486   119719972.240100   -83964381.690645   -35022141.012600  17.9343072  21.6425743   9.3990272    -0.000004673623     0.000003277645     0.000001367126
2037-07-28T09:49:21.16579025   123957534.240674   -78584905.003760   -32687597.165913  16.7728684  22.4172957   9.7217357    -0.000004839009     0.000003067623     0.000001275982
2037-07-31T05:38:23.21421549   127906720.529737   -73022616.570143   -30277012.509483  15.5723987  23.1398728  10.0218307    -0.000004993303     0.000002850562     0.000001181911
2037-08-03T01:27:25.26264072   131558336.187022   -67290452.007692   -27795993.165197  14.3356488  23.8086462  10.2986228    -0.000005136160     0.000002626946     0.000001085121
2037-08-05T21:16:27.31106611   134903867.615996   -61401737.548550   -25250307.234913  13.0654504  24.4220755  10.5514744    -0.000005267259     0.000002397270     0.000000985828
2037-08-08T17:05:52.91961096   137935779.363054   -55369572.063354   -22645618.063602  11.7645841  24.9787943  10.7798219    -0.000005386315     0.000002162022     0.000000884242
2037-08-11T12:55:18.52815596   140646637.226630   -49208538.628099   -19988223.420556  10.4361481  25.4774490  10.9831096    -0.000005493043     0.000001921745     0.000000780597
2037-08-14T08:44:44.13670096   143030079.759186   -42932959.184867   -17284301.143704   9.0831832  25.9168762  11.1608629    -0.000005587197     0.000001676971     0.000000675123
2037-08-17T04:34:09.74524596   145080494.727874   -36557423.675830   -14540138.058402   7.7087867  26.2960444  11.3126637    -0.000005668557     0.000001428244     0.000000568056
2037-08-19T21:51:12.55600139   146735046.122231   -30340035.327557   -11866673.468439   6.3685477  26.6032590  11.4339308    -0.000005734607     0.000001185611     0.000000463713
2037-08-22T15:08:15.36675682   148072898.437019   -24057171.111324    -9167600.163722   5.0142144  26.8531278  11.5305482    -0.000005788474     0.000000940327     0.000000358328
2037-08-25T08:25:18.17751224   149091076.905633   -17722377.151174    -6448738.150074   3.6486649  27.0450872  11.6022967    -0.000005830036     0.000000692897     0.000000252119
2037-08-28T01:42:20.98826767   149787286.217218   -11349318.083794    -3715952.976088   2.2748038  27.1786928  11.6490081    -0.000005859189     0.000000443832     0.000000145304
2037-08-29T21:18:10.48994628   150072093.291841    -7078854.405325    -1886150.954431   1.3541516  27.2352538  11.6661998    -0.000005871709     0.000000276851     0.000000073746
2037-08-31T16:53:59.99162504   150212273.170279    -2801571.715762      -54532.552683   0.4319725  27.2655781  11.6721514    -0.000005878644     0.000000109526     0.000000002083
2037-09-02T12:29:49.49330365   150207655.056971     1478408.555165     1777137.078003  -0.4908559  27.2696240  11.6668516    -0.000005879981    -0.000000057988    -0.000000069618
2037-09-04T08:05:38.99498226   150058206.014800     5756960.322369     3607091.844528  -1.4134545  27.2473739  11.6502997    -0.000005875714    -0.000000225536    -0.000000141291
2037-09-06T01:33:59.36188456   149781719.841639     9821897.712672     5344658.052379  -2.2900725  27.2018095  11.6241203    -0.000005866452    -0.000000384806    -0.000000209384
2037-09-07T19:02:19.72878685   149374476.346484    13878257.997881     7077557.237294  -3.1649291  27.1324827  11.5877847    -0.000005852120    -0.000000543831    -0.000000277332
2037-09-09T12:30:40.09568898   148836795.005013    17922496.673237     8804274.890516  -4.0372677  27.0394402  11.5413186    -0.000005832723    -0.000000702475    -0.000000345080
2037-09-11T05:59:00.46259128   148169108.167709    21951077.709638    10523300.990668  -4.9063328  26.9227487  11.4847565    -0.000005808272    -0.000000860605    -0.000000412568
2037-09-12T21:17:52.18515925   147416622.165829    25752382.237924    12144413.367803  -5.7264713  26.7903727  11.4218546    -0.000005780440    -0.000001009909    -0.000000476254
2037-09-14T12:36:43.90772707   146548354.376700    29533458.222089    13755986.354498  -6.5423513  26.6369134  11.3499622    -0.000005748096    -0.000001158514    -0.000000539606
2037-09-16T03:55:35.63029489   145564952.655148    33291329.097728    15356751.005737  -7.3533353  26.4624779  11.2691299    -0.000005711260    -0.000001306308    -0.000000602577
